STARLINK-32449          
1 61670U 24193K   26068.47804778 -.00001749  00000+0 -46982-4 0  9991
2 61670  53.1602  92.0291 0000843  77.9041 282.2055 15.30175539 76494
JINJUSAT-1B             
1 63210U 25052A   26068.66363707  .00019955  00000+0  68430-3 0  9998
2 63210  97.4113 325.4613 0005550  82.1930 277.9941 15.30194857 54866
