[{"OBJECT_NAME":"STARLINK-32449","OBJECT_ID":"2024-193K","EPOCH":"2026-03-09T11:28:23.328192","MEAN_MOTION":15.30175539,"ECCENTRICITY":8.438e-5,"INCLINATION":53.1602,"RA_OF_ASC_NODE":92.0291,"ARG_OF_PERICENTER":77.9041,"MEAN_ANOMALY":282.2055,"EPHEMERIS_TYPE":0,"CLASSIFICATION_TYPE":"U","NORAD_CAT_ID":61670,"ELEMENT_SET_NO":999,"REV_AT_EPOCH":7649,"BSTAR":-4.6982467e-5,"MEAN_MOTION_DOT":-1.749e-5,"MEAN_MOTION_DDOT":0},{"OBJECT_NAME":"JINJUSAT-1B","OBJECT_ID":"2025-052A","EPOCH":"2026-03-09T15:55:38.242848","MEAN_MOTION":15.30194857,"ECCENTRICITY":0.00055504,"INCLINATION":97.4113,"RA_OF_ASC_NODE":325.4613,"ARG_OF_PERICENTER":82.193,"MEAN_ANOMALY":277.9941,"EPHEMERIS_TYPE":0,"CLASSIFICATION_TYPE":"U","NORAD_CAT_ID":63210,"ELEMENT_SET_NO":999,"REV_AT_EPOCH":5486,"BSTAR":0.00068430401,"MEAN_MOTION_DOT":0.00019955,"MEAN_MOTION_DDOT":0}]
